NORAD_CAT_ID,OBJECT_NAME,OBJECT_TYPE,EPOCH,MEAN_MOTION,ECCENTRICITY,INCLINATION,RA_OF_ASC_NODE,ARG_OF_PERICENTER,MEAN_ANOMALY,BSTAR,MEAN_MOTION_DOT,MEAN_MOTION_DDOT,TLE_LINE0,TLE_LINE1,TLE_LINE2,SEMIMAJOR_AXIS,PERIOD,APOGEE,PERIGEE,DECAYED
53727.0,STARLINK-4701,PAYLOAD,2022-10-26 14:00:01,15.51276654,0.0001603,53.2173,19.0494,49.4915,174.017,-0.021374,-0.01148202,0.0,0 STARLINK-4701,1 53727U 22107AD  22299.58334491 -.01148202  00000-0 -21374-1 0  9995,2 53727  53.2173  19.0494 0001603  49.4915 174.0170 15.51276654  8208,6791.135,92.827,414.088,411.911,0.0
53727.0,STARLINK-4701,PAYLOAD,2022-10-26 22:00:00,15.5032742,0.0001621,53.2175,17.4527,56.2777,229.323,-0.010128,-0.00545493,0.0,0 STARLINK-4701,1 53727U 22107AD  22299.91667824 -.00545493  00000-0 -10128-1 0  9998,2 53727  53.2175  17.4527 0001621  56.2777 229.3230 15.50327420  1303,6793.906,92.884,416.87300000000016,414.67,0.0
53727.0,STARLINK-4701,PAYLOAD,2022-10-27 14:00:01,15.50232995,0.0001949,53.216,14.2679,32.0879,15.4243,-0.014262,-0.00756163,0.0,0 STARLINK-4701,1 53727U 22107AD  22300.58335648 -.00756163  00000-0 -14262-1 0  9991,2 53727  53.2160  14.2679 0001949  32.0879  15.4243 15.50232995  8350,6794.182,92.889,417.371,414.723,0.0
53727.0,STARLINK-4701,PAYLOAD,2022-10-27 22:00:00,15.49647551,0.0001823,53.2169,12.6732,33.192,75.2837,-0.023611,-0.0121018,0.0,0 STARLINK-4701,1 53727U 22107AD  22300.91667824 -.01210180  00000-0 -23611-1 0  9995,2 53727  53.2169  12.6732 0001823  33.1920  75.2837 15.49647551  1308,6795.893,92.924,418.997,416.519,0.0
53727.0,STARLINK-4701,PAYLOAD,2022-10-28 00:00:02,15.49392305,0.0001759,53.2173,12.2745,39.5096,174.1653,-0.022251,-0.01120407,0.0,0 STARLINK-4701,1 53727U 22107AD  22301.00002315 -.01120407  00000-0 -22251-1 0  9995,2 53727  53.2173  12.2745 0001759  39.5096 174.1653 15.49392305  8424,6796.64,92.94,419.7,417.309,0.0
53727.0,STARLINK-4701,PAYLOAD,2022-10-28 14:00:01,15.47987194,0.000168,53.217,9.4936,43.1191,184.6068,-0.023955,-0.01162232,0.0,0 STARLINK-4701,1 53727U 22107AD  22301.58335648 -.01162232  00000-0 -23955-1 0  9990,2 53727  53.2170   9.4936 0001680  43.1191 184.6068 15.47987194  1301,6800.752,93.024,423.759,421.474,0.0
53727.0,STARLINK-4701,PAYLOAD,2022-10-28 22:00:01,15.47161793,0.0001714,53.2174,7.9045,33.7404,252.1118,-0.024317,-0.01147541,0.0,0 STARLINK-4701,1 53727U 22107AD  22301.91668981 -.01147541  00000-0 -24317-1 0  9995,2 53727  53.2174   7.9045 0001714  33.7404 252.1118 15.47161793  1305,6803.17,93.074,426.202,423.869,0.0
53727.0,STARLINK-4701,PAYLOAD,2022-10-29 12:00:00,15.45773752,0.0001563,53.2169,5.1323,43.231,251.893,-0.026663,-0.01194456,0.0,0 STARLINK-4701,1 53727U 22107AD  22302.50001157 -.01194456  00000-0 -26663-1 0  9990,2 53727  53.2169   5.1323 0001563  43.2310 251.8930 15.45773752  1302,6807.243,93.157,430.171,428.044,0.0
53727.0,STARLINK-4701,PAYLOAD,2022-10-29 22:00:01,15.44719408,0.0001554,53.2174,3.1535,37.4396,56.9031,-0.026366,-0.0114369,0.0,0 STARLINK-4701,1 53727U 22107AD  22302.91668981 -.01143690  00000-0 -26366-1 0  9993,2 53727  53.2174   3.1535 0001554  37.4396  56.9031 15.44719408  1303,6810.34,93.221,433.263,431.146,0.0
53727.0,STARLINK-4701,PAYLOAD,2022-10-30 00:00:00,15.44513182,0.0001609,53.2174,2.758,45.7398,152.1836,-0.026444,-0.01139401,0.0,0 STARLINK-4701,1 53727U 22107AD  22303.00001157 -.01139401  00000-0 -26444-1 0  9992,2 53727  53.2174   2.7580 0001609  45.7398 152.1836 15.44513182  8730,6810.946,93.233,433.907,431.715,0.0
53727.0,STARLINK-4701,PAYLOAD,2022-10-30 14:00:01,15.43108264,0.0001576999999999,53.2172,359.9976,41.6468,160.0608,-0.028454,-0.01166133,0.0,0 STARLINK-4701,1 53727U 22107AD  22303.58334491 -.01166133  00000-0 -28454-1 0  9990,2 53727  53.2172 359.9976 0001577  41.6468 160.0608 15.43108264  1302,6815.079000000002,93.318,438.019,435.87,0.0
53727.0,STARLINK-4701,PAYLOAD,2022-10-30 22:00:01,15.42276311,0.0001440999999999,53.2175,358.4199,52.6332,201.4007,-0.028584,-0.01141211,0.0,0 STARLINK-4701,1 53727U 22107AD  22303.91668981 -.01141211  00000-0 -28584-1 0  9995,2 53727  53.2175 358.4199 0001441  52.6332 201.4007 15.42276311  1309,6817.53,93.368,440.377,438.412,0.0
53727.0,STARLINK-4701,PAYLOAD,2022-10-31 14:00:01,15.40657571,0.0001412,53.217,355.2758,46.5623,308.9726,-0.030513,-0.01152745,0.0,0 STARLINK-4701,1 53727U 22107AD  22304.58334491 -.01152745  00000-0 -30513-1 0  9994,2 53727  53.2170 355.2758 0001412  46.5623 308.9726 15.40657571  1303,6822.304,93.467,445.133,443.206,0.0
53727.0,STARLINK-4701,PAYLOAD,2022-10-31 22:00:01,15.39834716,0.0001425,53.2175,353.7039,43.1111,1.8121,-0.030989,-0.01140273,0.0,0 STARLINK-4701,1 53727U 22107AD  22304.91668981 -.01140273  00000-0 -30989-1 0  9995,2 53727  53.2175 353.7039 0001425  43.1111   1.8121 15.39834716  9034,6824.735,93.517,447.572,445.627,0.0
53727.0,STARLINK-4701,PAYLOAD,2022-11-01 14:00:01,15.38229923,0.0001465,53.2168,350.5714,48.1477,92.4025,-0.033609,-0.01170042,0.0,0 STARLINK-4701,1 53727U 22107AD  22305.58334491 -.01170042  00000-0 -33609-1 0  9994,2 53727  53.2168 350.5714 0001465  48.1477  92.4025 15.38229923  1303,6829.481,93.614,452.346,450.345,0.0
53727.0,STARLINK-4701,PAYLOAD,2022-11-01 22:00:00,15.37390254,0.0001585999999999,53.2172,349.0054,47.9558,138.9932,-0.0334,-0.01134571,0.0,0 STARLINK-4701,1 53727U 22107AD  22305.91667824 -.01134571  00000-0 -33400-1 0  9996,2 53727  53.2172 349.0054 0001586  47.9558 138.9932 15.37390254  9181,6831.967,93.665,454.916,452.74800000000016,0.0
53727.0,STARLINK-4701,PAYLOAD,2022-11-02 14:00:01,15.357636,0.0001514,53.2173,345.8846,47.4104,229.3729,-0.035203,-0.01134307,0.0,0 STARLINK-4701,1 53727U 22107AD  22306.58334491 -.01134307  00000-0 -35203-1 0  9991,2 53727  53.2173 345.8846 0001514  47.4104 229.3729 15.35763600  9285,6836.79,93.764,459.69,457.62,0.0
53727.0,STARLINK-4701,PAYLOAD,2022-11-02 22:00:00,15.34950954,0.0001378,53.2174,344.3243,47.8213,272.4144,-0.036226,-0.01136839,0.0,0 STARLINK-4701,1 53727U 22107AD  22306.91667824 -.01136839  00000-0 -36226-1 0  9995,2 53727  53.2174 344.3243 0001378  47.8213 272.4144 15.34950954  1308,6839.203,93.814,462.011,460.126,0.0
53727.0,STARLINK-4701,PAYLOAD,2022-11-03 06:00:02,15.34156288,0.0001478,53.2168,342.7678,44.2918,318.4725,-0.038119,-0.01163611,0.0,0 STARLINK-4701,1 53727U 22107AD  22307.25002315 -.01163611  00000-0 -38119-1 0  9992,2 53727  53.2168 342.7678 0001478  44.2918 318.4725 15.34156288  9389,6841.565,93.863,464.441,462.419,0.0
53727.0,STARLINK-4701,PAYLOAD,2022-11-03 14:00:01,15.33328894,0.000161,53.2168,341.2148,37.7409,6.4605,-0.038404,-0.01143713,0.0,0 STARLINK-4701,1 53727U 22107AD  22307.58334491 -.01143713  00000-0 -38404-1 0  9999,2 53727  53.2168 341.2148 0001610  37.7409   6.4605 15.33328894  1303,6844.026,93.913,466.99300000000005,464.789,0.0
53727.0,STARLINK-4701,PAYLOAD,2022-11-03 22:00:00,15.3250921,0.0001593,53.2175,339.6604,40.4408,44.2825,-0.039121,-0.01135903,0.0,0 STARLINK-4701,1 53727U 22107AD  22307.91667824 -.01135903  00000-0 -39121-1 0  9994,2 53727  53.2175 339.6604 0001593  40.4408  44.2825 15.32509210  1305,6846.465999999999,93.964,469.421,467.24,0.0
53727.0,STARLINK-4701,PAYLOAD,2022-11-04 14:00:01,15.30881239,0.0001764999999999,53.2173,336.5626,42.1622,120.6621,-0.041103,-0.01134073,0.0,0 STARLINK-4701,1 53727U 22107AD  22308.58334491 -.01134073  00000-0 -41103-1 0  9999,2 53727  53.2173 336.5626 0001765  42.1622 120.6621 15.30881239  9595,6851.319,94.063,474.393,471.975,0.0
53727.0,STARLINK-4701,PAYLOAD,2022-11-04 22:00:01,15.30081645,0.0001769,53.2169,335.0137,40.1986,160.2683,-0.042947,-0.01153823,0.0,0 STARLINK-4701,1 53727U 22107AD  22308.91668981 -.01153823  00000-0 -42947-1 0  9991,2 53727  53.2169 335.0137 0001769  40.1986 160.2683 15.30081645  1308,6853.705,94.113,476.783,474.358,0.0
53727.0,STARLINK-4701,PAYLOAD,2022-11-05 06:00:00,15.29266371,0.0001669,53.2169,333.4693,50.2851,186.7248,-0.043947,-0.01151362,0.0,0 STARLINK-4701,1 53727U 22107AD  22309.25001157 -.01151362  00000-0 -43947-1 0  9992,2 53727  53.2169 333.4693 0001669  50.2851 186.7248 15.29266371  9698,6856.141,94.163,479.15,476.862,0.0
53727.0,STARLINK-4701,PAYLOAD,2022-11-05 14:00:01,15.28452574,0.0001658,53.2166,331.9273,42.4547,230.2467,-0.045057,-0.01151131,0.0,0 STARLINK-4701,1 53727U 22107AD  22309.58335648 -.01151131  00000-0 -45057-1 0  9991,2 53727  53.2166 331.9273 0001658  42.4547 230.2467 15.28452574  1304,6858.575,94.213,481.577,479.302,0.0
53727.0,STARLINK-4701,PAYLOAD,2022-11-05 22:00:01,15.27625326,0.0001496999999999,53.2174,330.3845,44.7097,262.6499,-0.045399,-0.0113246,0.0,0 STARLINK-4701,1 53727U 22107AD  22309.91668981 -.01132460  00000-0 -45399-1 0  9990,2 53727  53.2174 330.3845 0001497  44.7097 262.6499 15.27625326  1307,6861.05,94.264,483.942,481.888,0.0
53727.0,STARLINK-4701,PAYLOAD,2022-11-06 06:00:00,15.26824432,0.0001598,53.217,328.8459,44.3984,296.5643,-0.047351,-0.01166286,0.0,0 STARLINK-4701,1 53727U 22107AD  22310.25001157 -.01166286  00000-0 -47351-1 0  9998,2 53727  53.2170 328.8459 0001598  44.3984 296.5643 15.26824432  9841,6863.449000000001,94.313,486.411,484.218,0.0
53727.0,STARLINK-4701,PAYLOAD,2022-11-06 14:00:01,15.26020052,0.0001783,53.2165,327.3093,35.9595,337.6924,-0.049042,-0.01177807,0.0,0 STARLINK-4701,1 53727U 22107AD  22310.58334491 -.01177807  00000-0 -49042-1 0  9994,2 53727  53.2165 327.3093 0001783  35.9595 337.6924 15.26020052  1301,6865.861,94.363,488.95,486.502,0.0
53727.0,STARLINK-4701,PAYLOAD,2022-11-07 08:00:01,15.24171071,0.0001719,53.2171,323.8573,46.7518,126.8983,-0.050725,-0.01154023,0.0,0 STARLINK-4701,1 53727U 22107AD  22311.33334491 -.01154023  00000-0 -50725-1 0  9993,2 53727  53.2171 323.8573 0001719  46.7518 126.8983 15.24171071 10013,6871.413000000001,94.478,494.459,492.096,0.0
